start=new Date('2023-01-07T00:00:00.000Z').valueOf();
sats=[{"ELEMENT_SET_NO":"999","CLASSIFICATION_TYPE":"U","ECCENTRICITY":"0.00043330","EPOCH":"2023-01-06T22:00:00.999936","GP_ID":"222347286","MEAN_ANOMALY":"269.4506","OBJECT_NAME":"STARLINK-5406","SEMIMAJOR_AXIS":"6688.344","CENTER_NAME":"EARTH","BSTAR":"-0.00438030000000","ARG_OF_PERICENTER":"268.5189","MEAN_ELEMENT_THEORY":"SGP4","RCS_SIZE":null,"EPHEMERIS_TYPE":"0","TLE_LINE2":"2 54860  43.0000 317.9549 0004333 268.5189 269.4506 15.87175196  1308","MEAN_MOTION_DDOT":"0.0000000000000","TLE_LINE1":"1 54860U 22177AS  23006.91667824 -.01052107  00000-0 -43803-2 0  9994","MEAN_MOTION_DOT":"-0.01052107","SITE":"AFETR","OBJECT_TYPE":"PAYLOAD","MEAN_MOTION":"15.87175196","DECAY_DATE":null,"OBJECT_ID":"2022-177AS","INCLINATION":"43.0000","FILE":"3734255","REV_AT_EPOCH":"130","COUNTRY_CODE":"US","PERIOD":"90.727","LAUNCH_DATE":"2022-12-28","RA_OF_ASC_NODE":"317.9549","REF_FRAME":"TEME","PERIAPSIS":"307.311","TIME_SYSTEM":"UTC","APOAPSIS":"313.107","NORAD_CAT_ID":"54860"},{"CENTER_NAME":"EARTH","SEMIMAJOR_AXIS":"6688.551","OBJECT_NAME":"STARLINK-5400","BSTAR":"-0.00439700000000","EPOCH":"2023-01-06T22:00:00.999936","ECCENTRICITY":"0.00045810","ELEMENT_SET_NO":"999","CLASSIFICATION_TYPE":"U","MEAN_ANOMALY":"267.0845","GP_ID":"222345680","COUNTRY_CODE":"US","REV_AT_EPOCH":"130","INCLINATION":"42.9997","FILE":"3734255","OBJECT_ID":"2022-177AT","SITE":"AFETR","MEAN_MOTION":"15.87101643","OBJECT_TYPE":"PAYLOAD","DECAY_DATE":null,"APOAPSIS":"313.480","NORAD_CAT_ID":"54861","TIME_SYSTEM":"UTC","REF_FRAME":"TEME","PERIAPSIS":"307.352","LAUNCH_DATE":"2022-12-28","PERIOD":"90.731","RA_OF_ASC_NODE":"317.9605","EPHEMERIS_TYPE":"0","TLE_LINE2":"2 54861  42.9997 317.9605 0004581 268.5696 267.0845 15.87101643  1309","RCS_SIZE":null,"MEAN_ELEMENT_THEORY":"SGP4","ARG_OF_PERICENTER":"268.5696","MEAN_MOTION_DDOT":"0.0000000000000","TLE_LINE1":"1 54861U 22177AT  23006.91667824 -.01052419  00000-0 -43970-2 0  9996","MEAN_MOTION_DOT":"-0.01052419"},{"MEAN_MOTION_DDOT":"0.0000000000000","TLE_LINE1":"1 54862U 22177AU  23006.91667824 -.01048356  00000-0 -43668-2 0  9996","MEAN_MOTION_DOT":"-0.01048356","EPHEMERIS_TYPE":"0","TLE_LINE2":"2 54862  43.0000 317.9580 0006022 265.4573 271.2698 15.87126854  1305","RCS_SIZE":null,"MEAN_ELEMENT_THEORY":"SGP4","ARG_OF_PERICENTER":"265.4573","APOAPSIS":"314.373","NORAD_CAT_ID":"54862","TIME_SYSTEM":"UTC","REF_FRAME":"TEME","PERIAPSIS":"306.317","LAUNCH_DATE":"2022-12-28","PERIOD":"90.730","RA_OF_ASC_NODE":"317.9580","REV_AT_EPOCH":"130","COUNTRY_CODE":"US","INCLINATION":"43.0000","FILE":"3734255","OBJECT_ID":"2022-177AU","MEAN_MOTION":"15.87126854","SITE":"AFETR","OBJECT_TYPE":"PAYLOAD","DECAY_DATE":null,"MEAN_ANOMALY":"271.2698","GP_ID":"222345910","EPOCH":"2023-01-06T22:00:00.999936","ECCENTRICITY":"0.00060220","ELEMENT_SET_NO":"999","CLASSIFICATION_TYPE":"U","BSTAR":"-0.00436680000000","CENTER_NAME":"EARTH","SEMIMAJOR_AXIS":"6688.480","OBJECT_NAME":"STARLINK-5403"},{"EPOCH":"2023-01-06T22:00:00.999936","ECCENTRICITY":"0.00039570","ELEMENT_SET_NO":"999","CLASSIFICATION_TYPE":"U","MEAN_ANOMALY":"268.1152","GP_ID":"222347057","CENTER_NAME":"EARTH","SEMIMAJOR_AXIS":"6688.426","OBJECT_NAME":"STARLINK-5405","BSTAR":"-0.00438920000000","EPHEMERIS_TYPE":"0","TLE_LINE2":"2 54863  43.0000 317.9577 0003957 268.8054 268.1152 15.87145988  1306","RCS_SIZE":null,"MEAN_ELEMENT_THEORY":"SGP4","ARG_OF_PERICENTER":"268.8054","TLE_LINE1":"1 54863U 22177AV  23006.91667824 -.01052361  00000-0 -43892-2 0  9997","MEAN_MOTION_DDOT":"0.0000000000000","MEAN_MOTION_DOT":"-0.01052361","REV_AT_EPOCH":"130","COUNTRY_CODE":"US","INCLINATION":"43.0000","FILE":"3734255","OBJECT_ID":"2022-177AV","SITE":"AFETR","OBJECT_TYPE":"PAYLOAD","MEAN_MOTION":"15.87145988","DECAY_DATE":null,"APOAPSIS":"312.938","NORAD_CAT_ID":"54863","TIME_SYSTEM":"UTC","REF_FRAME":"TEME","PERIAPSIS":"307.644","LAUNCH_DATE":"2022-12-28","PERIOD":"90.729","RA_OF_ASC_NODE":"317.9577"},{"CENTER_NAME":"EARTH","OBJECT_NAME":"STARLINK-5359","SEMIMAJOR_AXIS":"6688.279","BSTAR":"-0.00437250000000","EPOCH":"2023-01-06T22:00:00.999936","ELEMENT_SET_NO":"999","CLASSIFICATION_TYPE":"U","ECCENTRICITY":"0.00044910","GP_ID":"222346828","MEAN_ANOMALY":"270.2229","INCLINATION":"43.0000","FILE":"3734255","COUNTRY_CODE":"US","REV_AT_EPOCH":"130","SITE":"AFETR","OBJECT_TYPE":"PAYLOAD","MEAN_MOTION":"15.87198400","DECAY_DATE":null,"OBJECT_ID":"2022-177AW","TIME_SYSTEM":"UTC","APOAPSIS":"313.147","NORAD_CAT_ID":"54864","LAUNCH_DATE":"2022-12-28","PERIOD":"90.726","RA_OF_ASC_NODE":"317.9533","REF_FRAME":"TEME","PERIAPSIS":"307.140","RCS_SIZE":null,"EPHEMERIS_TYPE":"0","TLE_LINE2":"2 54864  43.0000 317.9533 0004491 268.3464 270.2229 15.87198400  1309","ARG_OF_PERICENTER":"268.3464","MEAN_ELEMENT_THEORY":"SGP4","TLE_LINE1":"1 54864U 22177AW  23006.91667824 -.01051646  00000-0 -43725-2 0  9998","MEAN_MOTION_DDOT":"0.0000000000000","MEAN_MOTION_DOT":"-0.01051646"},{"MEAN_MOTION_DDOT":"0.0000000000000","TLE_LINE1":"1 54865U 22177AX  23006.91667824 -.01052331  00000-0 -43912-2 0  9999","MEAN_MOTION_DOT":"-0.01052331","EPHEMERIS_TYPE":"0","TLE_LINE2":"2 54865  43.0000 317.9591 0004790 267.9628 268.3455 15.87122672  1300","RCS_SIZE":null,"MEAN_ELEMENT_THEORY":"SGP4","ARG_OF_PERICENTER":"267.9628","APOAPSIS":"313.560","NORAD_CAT_ID":"54865","TIME_SYSTEM":"UTC","REF_FRAME":"TEME","PERIAPSIS":"307.153","LAUNCH_DATE":"2022-12-28","PERIOD":"90.730","RA_OF_ASC_NODE":"317.9591","COUNTRY_CODE":"US","REV_AT_EPOCH":"130","INCLINATION":"43.0000","FILE":"3734255","OBJECT_ID":"2022-177AX","OBJECT_TYPE":"PAYLOAD","SITE":"AFETR","MEAN_MOTION":"15.87122672","DECAY_DATE":null,"MEAN_ANOMALY":"268.3455","GP_ID":"222346140","EPOCH":"2023-01-06T22:00:00.999936","ECCENTRICITY":"0.00047900","ELEMENT_SET_NO":"999","CLASSIFICATION_TYPE":"U","BSTAR":"-0.00439120000000","CENTER_NAME":"EARTH","SEMIMAJOR_AXIS":"6688.491","OBJECT_NAME":"STARLINK-5411"},{"CENTER_NAME":"EARTH","SEMIMAJOR_AXIS":"6688.244","OBJECT_NAME":"STARLINK-5398","BSTAR":"-0.00424450000000","EPOCH":"2023-01-06T22:00:00.999936","ECCENTRICITY":"0.00048350","ELEMENT_SET_NO":"999","CLASSIFICATION_TYPE":"U","MEAN_ANOMALY":"271.6347","GP_ID":"222318788","REV_AT_EPOCH":"165","COUNTRY_CODE":"US","INCLINATION":"42.9995","FILE":"3734204","OBJECT_ID":"2022-177AY","MEAN_MOTION":"15.87210820","SITE":"AFETR","OBJECT_TYPE":"PAYLOAD","DECAY_DATE":null,"APOAPSIS":"313.343","NORAD_CAT_ID":"54866","TIME_SYSTEM":"UTC","REF_FRAME":"TEME","PERIAPSIS":"306.875","LAUNCH_DATE":"2022-12-28","PERIOD":"90.725","RA_OF_ASC_NODE":"317.9500","EPHEMERIS_TYPE":"0","TLE_LINE2":"2 54866  42.9995 317.9500 0004835 267.9295 271.6347 15.87210820  1650","RCS_SIZE":null,"MEAN_ELEMENT_THEORY":"SGP4","ARG_OF_PERICENTER":"267.9295","MEAN_MOTION_DDOT":"0.0000000000000","TLE_LINE1":"1 54866U 22177AY  23006.91667824 -.01025000  00000-0 -42445-2 0  9993","MEAN_MOTION_DOT":"-0.01025000"},{"MEAN_ANOMALY":"269.8173","GP_ID":"222319567","ECCENTRICITY":"0.00041410","ELEMENT_SET_NO":"999","CLASSIFICATION_TYPE":"U","EPOCH":"2023-01-06T22:00:00.999936","BSTAR":"-0.00438160000000","SEMIMAJOR_AXIS":"6688.307","OBJECT_NAME":"STARLINK-5396","CENTER_NAME":"EARTH","MEAN_MOTION_DDOT":"0.0000000000000","TLE_LINE1":"1 54867U 22177AZ  23006.91667824 -.01052862  00000-0 -43816-2 0  9993","MEAN_MOTION_DOT":"-0.01052862","MEAN_ELEMENT_THEORY":"SGP4","ARG_OF_PERICENTER":"268.4317","EPHEMERIS_TYPE":"0","TLE_LINE2":"2 54867  43.0000 317.9543 0004141 268.4317 269.8173 15.87188474  1530","RCS_SIZE":null,"REF_FRAME":"TEME","PERIAPSIS":"307.402","LAUNCH_DATE":"2022-12-28","PERIOD":"90.726","RA_OF_ASC_NODE":"317.9543","APOAPSIS":"312.941","NORAD_CAT_ID":"54867","TIME_SYSTEM":"UTC","OBJECT_ID":"2022-177AZ","SITE":"AFETR","OBJECT_TYPE":"PAYLOAD","MEAN_MOTION":"15.87188474","DECAY_DATE":null,"REV_AT_EPOCH":"153","COUNTRY_CODE":"US","INCLINATION":"43.0000","FILE":"3734174"},{"ARG_OF_PERICENTER":"268.2372","MEAN_ELEMENT_THEORY":"SGP4","RCS_SIZE":null,"EPHEMERIS_TYPE":"0","TLE_LINE2":"2 54868  42.9996 317.9487 0004145 268.2372 271.9176 15.87245378  1537","TLE_LINE1":"1 54868U 22177BA  23006.91667824 -.01039269  00000-0 -43058-2 0  9998","MEAN_MOTION_DDOT":"0.0000000000000","MEAN_MOTION_DOT":"-0.01039269","SITE":"AFETR","OBJECT_TYPE":"PAYLOAD","MEAN_MOTION":"15.87245378","DECAY_DATE":null,"OBJECT_ID":"2022-177BA","INCLINATION":"42.9996","FILE":"3734179","COUNTRY_CODE":"US","REV_AT_EPOCH":"153","LAUNCH_DATE":"2022-12-28","PERIOD":"90.723","RA_OF_ASC_NODE":"317.9487","REF_FRAME":"TEME","PERIAPSIS":"307.240","TIME_SYSTEM":"UTC","APOAPSIS":"312.784","NORAD_CAT_ID":"54868","ELEMENT_SET_NO":"999","CLASSIFICATION_TYPE":"U","ECCENTRICITY":"0.00041450","EPOCH":"2023-01-06T22:00:00.999936","GP_ID":"222319656","MEAN_ANOMALY":"271.9176","OBJECT_NAME":"STARLINK-5379","SEMIMAJOR_AXIS":"6688.147","CENTER_NAME":"EARTH","BSTAR":"-0.00430580000000"},{"BSTAR":"-0.00436870000000","SEMIMAJOR_AXIS":"6688.217","OBJECT_NAME":"STARLINK-5402","CENTER_NAME":"EARTH","MEAN_ANOMALY":"270.4146","GP_ID":"222345681","ECCENTRICITY":"0.00037300","CLASSIFICATION_TYPE":"U","ELEMENT_SET_NO":"999","EPOCH":"2023-01-06T22:00:00.999936","PERIAPSIS":"307.587","REF_FRAME":"TEME","RA_OF_ASC_NODE":"317.9519","LAUNCH_DATE":"2022-12-28","PERIOD":"90.725","NORAD_CAT_ID":"54869","APOAPSIS":"312.576","TIME_SYSTEM":"UTC","OBJECT_ID":"2022-177BB","DECAY_DATE":null,"OBJECT_TYPE":"PAYLOAD","SITE":"AFETR","MEAN_MOTION":"15.87220458","COUNTRY_CODE":"US","REV_AT_EPOCH":"130","FILE":"3734255","INCLINATION":"43.0000","MEAN_MOTION_DOT":"-0.01051301","MEAN_MOTION_DDOT":"0.0000000000000","TLE_LINE1":"1 54869U 22177BB  23006.91667824 -.01051301  00000-0 -43687-2 0  9998","MEAN_ELEMENT_THEORY":"SGP4","ARG_OF_PERICENTER":"268.7911","TLE_LINE2":"2 54869  43.0000 317.9519 0003730 268.7911 270.4146 15.87220458  1303","EPHEMERIS_TYPE":"0","RCS_SIZE":null}];
